STARLINK-1506
1 45747U 20038T   26092.68902899  .00030233  00000+0  11427-2 0  9997
2 45747  53.0733  91.3064 0003270 353.7239   6.3717 15.26749307320358
